{"id":"786a8a3834054538be2d12d5e79ab06f","nameCn":"根节点","nameEn":"root","parentId":null,"isRequired":false,"childRule":1,"type":1,"checkType":1,"children":[{"parentId":"786a8a3834054538be2d12d5e79ab06f","isRequired":false,"type":1,"childRule":3,"nameCn":"1","nameEn":"2","children":[{"parentId":"id-1","isRequired":false,"type":1,"childRule":3,"nameCn":"x","nameEn":"x","children":null,"id":"id-5","checkType":1},{"parentId":"id-1","isRequired":false,"type":1,"childRule":3,"nameCn":"y","nameEn":"y","children":null,"id":"id-6","checkType":1}],"id":"id-1","checkType":1},{"parentId":"786a8a3834054538be2d12d5e79ab06f","isRequired":true,"type":1,"childRule":3,"nameCn":"2","nameEn":"2","children":[{"parentId":"id-2","isRequired":true,"type":2,"childRule":2,"nameCn":"22","nameEn":"22","children":null,"id":"id-4","checkType":1}],"id":"id-2","checkType":1},{"parentId":"786a8a3834054538be2d12d5e79ab06f","isRequired":false,"type":1,"childRule":3,"nameCn":"z3","nameEn":"1","children":null,"id":"id-3","checkType":1},{"parentId":"786a8a3834054538be2d12d5e79ab06f","isRequired":false,"type":1,"childRule":3,"nameCn":"z4","nameEn":"1","children":null,"id":"id-7","checkType":1},{"parentId":"786a8a3834054538be2d12d5e79ab06f","isRequired":false,"type":1,"childRule":3,"nameCn":"z5","nameEn":"5","children":[{"parentId":"id-8","isRequired":false,"type":1,"childRule":3,"nameCn":"z55","nameEn":"1","children":null,"id":"id-9","checkType":1},{"parentId":"id-8","isRequired":false,"type":1,"childRule":3,"nameCn":"z56","nameEn":"11","children":null,"id":"id-10","checkType":1},{"parentId":"id-8","isRequired":false,"type":1,"childRule":3,"nameCn":"z555","nameEn":"1","children":null,"id":"id-11","checkType":1},{"parentId":"id-8","isRequired":false,"type":1,"childRule":3,"nameCn":"z566","nameEn":"566","children":[{"parentId":"id-12","isRequired":false,"type":1,"childRule":3,"nameCn":"zz12","nameEn":"12","children":[{"parentId":"id-14","isRequired":false,"type":2,"childRule":1,"nameCn":"sj1","nameEn":"01","children":null,"id":"id-16","checkType":1},{"parentId":"id-14","isRequired":false,"type":2,"childRule":1,"nameCn":"sj02","nameEn":"02","children":null,"id":"id-17","checkType":1}],"id":"id-14","checkType":1},{"parentId":"id-12","isRequired":true,"type":1,"childRule":3,"nameCn":"zz13","nameEn":"13","children":null,"id":"id-15","checkType":1}],"id":"id-12","checkType":1},{"parentId":"id-8","isRequired":true,"type":1,"childRule":3,"nameCn":"z665","nameEn":"665","children":null,"id":"id-13","checkType":1}],"id":"id-8","checkType":1}]}
