{"id":"786a8a3834054538be2d12d5e79ab06f","nameCn":"根节点","nameEn":"root","parentId":null,"isRequired":false,"childRule":1,"type":1,"checkType":1,"children":[{"children":[{"children":null,"id":"4c2dc9c030ba41708de7aa0ad4df6e3d","nameCn":"a","nameEn":"a","parentId":"d341fab4e5b347f5b22084baff8ca593","childRule":1,"type":2,"isRequired":false,"checkType":1,"_noedit":true}],"id":"d341fab4e5b347f5b22084baff8ca593","nameCn":"目录1","nameEn":"目录1","parentId":"786a8a3834054538be2d12d5e79ab06f","childRule":1,"type":1,"isRequired":false,"checkType":1,"_noedit":true},{"children":[{"parentId":"fdd2a13dd24b4b6eb02bd709f8ad2798","isRequired":true,"type":1,"childRule":2,"nameCn":"xx","nameEn":"xx","checkType":1,"children":[{"parentId":"new1","isRequired":false,"type":2,"childRule":2,"nameCn":"xx","nameEn":"xx","children":null,"checkType":1,"id":"id-8"}],"id":"new1"}],"id":"fdd2a13dd24b4b6eb02bd709f8ad2798","nameCn":"t2","nameEn":"t2","parentId":"786a8a3834054538be2d12d5e79ab06f","childRule":1,"type":1,"checkType":1,"isRequired":true},{"children":[{"parentId":"b5ecf25e44554c829225a180dba8e3bf","isRequired":true,"type":1,"childRule":1,"nameCn":"11","nameEn":"22","children":[{"parentId":"id-6","isRequired":false,"type":2,"childRule":1,"nameCn":"2","nameEn":"2","children":null,"id":"id-10","checkType":1}],"checkType":1,"id":"id-6"},{"parentId":"b5ecf25e44554c829225a180dba8e3bf","isRequired":false,"type":1,"childRule":2,"nameCn":"目录xx","nameEn":"目","children":null,"checkType":1,"id":"id-7"},{"parentId":"b5ecf25e44554c829225a180dba8e3bf","isRequired":false,"type":1,"childRule":1,"nameCn":"t333t333t333t333t333t333t333t333t333t333t333t333","nameEn":"ml","children":null,"id":"id-11","checkType":2}],"id":"b5ecf25e44554c829225a180dba8e3bf","nameCn":"t3","nameEn":"t3","parentId":"786a8a3834054538be2d12d5e79ab06f","childRule":2,"type":1,"checkType":1,"isRequired":false},{"parentId":"786a8a3834054538be2d12d5e79ab06f","isRequired":false,"type":1,"childRule":3,"nameCn":"tt","nameEn":"t","children":null,"checkType":1,"id":"id-9"}]}
